[{"OBJECT_NAME":"STARLINK-3209","OBJECT_ID":"2021-115AE","EPOCH":"2026-03-09T11:28:44.184288","MEAN_MOTION":15.08837439,"ECCENTRICITY":0.00014926,"INCLINATION":53.2181,"RA_OF_ASC_NODE":140.0795,"ARG_OF_PERICENTER":97.8265,"MEAN_ANOMALY":262.2897,"EPHEMERIS_TYPE":0,"CLASSIFICATION_TYPE":"U","NORAD_CAT_ID":49752,"ELEMENT_SET_NO":999,"REV_AT_EPOCH":23564,"BSTAR":-3.8247043e-5,"MEAN_MOTION_DOT":-8.97e-6,"MEAN_MOTION_DDOT":0},{"OBJECT_NAME":"CICERO 3","OBJECT_ID":"2017-042AA","EPOCH":"2026-03-09T22:34:09.559488","MEAN_MOTION":15.06999011,"ECCENTRICITY":0.00123402,"INCLINATION":97.4153,"RA_OF_ASC_NODE":238.2133,"ARG_OF_PERICENTER":85.148,"MEAN_ANOMALY":275.1157,"EPHEMERIS_TYPE":0,"CLASSIFICATION_TYPE":"U","NORAD_CAT_ID":42849,"ELEMENT_SET_NO":999,"REV_AT_EPOCH":47226,"BSTAR":0.00039473976,"MEAN_MOTION_DOT":5.861e-5,"MEAN_MOTION_DDOT":0}]
